{"type": "FeatureCollection", "features": [{"type": "Feature", "properties": {"norad_id": 24946, "name": "IRIDIUM 33", "group": "iridium-33-debris", "lat": -75.5164227111172, "lon": -99.09021788537984, "alt_km": 780.3416404953186, "timestamp": "2025-12-16T05:49:09.598215+00:00", "meta": {"OBJECT_NAME": "IRIDIUM 33", "OBJECT_ID": "1997-051C", "EPOCH": "2025-12-15T18:35:22.364160", "MEAN_MOTION": 14.35039593, "ECCENTRICITY": 0.00073898, "INCLINATION": 86.387, "RA_OF_ASC_NODE": 66.9479, "ARG_OF_PERICENTER": 189.767, "MEAN_ANOMALY": 170.3384, "EPHEMERIS_TYPE": 0, "CLASSIFICATION_TYPE": "U", "NORAD_CAT_ID": 24946, "ELEMENT_SET_NO": 999, "REV_AT_EPOCH": 47878, "BSTAR": 0.00010981675, "MEAN_MOTION_DOT": 3.33e-06, "MEAN_MOTION_DDOT": 0}, "tle": {"line1": "1 24946U 97051C   25349.77456440  .00000333  00000+0  10982-3 0  9998", "line2": "2 24946  86.3870  66.9479 0007389 189.7670 170.3384 14.35039593478787"}}, "geometry": {"type": "Point", "coordinates": [-99.09021788537984, -75.5164227111172]}}, {"type": "Feature", "properties": {"norad_id": 33773, "name": "IRIDIUM 33 DEB", "group": "iridium-33-debris", "lat": -43.598491291362734, "lon": 55.66901304697561, "alt_km": 763.595513615096, "timestamp": "2025-12-16T05:49:09.598241+00:00", "meta": {"OBJECT_NAME": "IRIDIUM 33 DEB", "OBJECT_ID": "1997-051L", "EPOCH": "2025-12-15T21:42:07.717536", "MEAN_MOTION": 14.43264072, "ECCENTRICITY": 0.00127761, "INCLINATION": 86.4007, "RA_OF_ASC_NODE": 59.2485, "ARG_OF_PERICENTER": 137.1315, "MEAN_ANOMALY": 223.0884, "EPHEMERIS_TYPE": 0, "CLASSIFICATION_TYPE": "U", "NORAD_CAT_ID": 33773, "ELEMENT_SET_NO": 999, "REV_AT_EPOCH": 88393, "BSTAR": 0.00029336975, "MEAN_MOTION_DOT": 1.008e-05, "MEAN_MOTION_DDOT": 0}, "tle": {"line1": "1 33773U 97051L   25349.90425599  .00001008  00000+0  29337-3 0  9996", "line2": "2 33773  86.4007  59.2485 0012776 137.1315 223.0884 14.43264072883938"}}, "geometry": {"type": "Point", "coordinates": [55.66901304697561, -43.598491291362734]}}, {"type": "Feature", "properties": {"norad_id": 33775, "name": "IRIDIUM 33 DEB", "group": "iridium-33-debris", "lat": 17.09374471914656, "lon": 49.17895108228909, "alt_km": 760.4456400654653, "timestamp": "2025-12-16T05:49:09.598256+00:00", "meta": {"OBJECT_NAME": "IRIDIUM 33 DEB", "OBJECT_ID": "1997-051N", "EPOCH": "2025-12-15T22:14:31.483392", "MEAN_MOTION": 14.4147533, "ECCENTRICITY": 0.00146392, "INCLINATION": 86.3635, "RA_OF_ASC_NODE": 48.1931, "ARG_OF_PERICENTER": 144.9355, "MEAN_ANOMALY": 35.1176, "EPHEMERIS_TYPE": 0, "CLASSIFICATION_TYPE": "U", "NORAD_CAT_ID": 33775, "ELEMENT_SET_NO": 999, "REV_AT_EPOCH": 88186, "BSTAR": 0.00029905843, "MEAN_MOTION_DOT": 9.91e-06, "MEAN_MOTION_DDOT": 0}, "tle": {"line1": "1 33775U 97051N   25349.92675328  .00000991  00000+0  29906-3 0  9999", "line2": "2 33775  86.3635  48.1931 0014639 144.9355  35.1176 14.41475330881864"}}, "geometry": {"type": "Point", "coordinates": [49.17895108228909, 17.09374471914656]}}, {"type": "Feature", "properties": {"norad_id": 33776, "name": "IRIDIUM 33 DEB", "group": "iridium-33-debris", "lat": -26.469143301893947, "lon": -98.90054692709131, "alt_km": 760.7749563453699, "timestamp": "2025-12-16T05:49:09.598268+00:00", "meta": {"OBJECT_NAME": "IRIDIUM 33 DEB", "OBJECT_ID": "1997-051P", "EPOCH": "2025-12-15T19:23:17.167776", "MEAN_MOTION": 14.38240494, "ECCENTRICITY": 0.00147154, "INCLINATION": 86.4039, "RA_OF_ASC_NODE": 79.4876, "ARG_OF_PERICENTER": 180.2609, "MEAN_ANOMALY": 297.1088, "EPHEMERIS_TYPE": 0, "CLASSIFICATION_TYPE": "U", "NORAD_CAT_ID": 33776, "ELEMENT_SET_NO": 999, "REV_AT_EPOCH": 88126, "BSTAR": 0.00026808097, "MEAN_MOTION_DOT": 8.35e-06, "MEAN_MOTION_DDOT": 0}, "tle": {"line1": "1 33776U 97051P   25349.80783759  .00000835  00000+0  26808-3 0  9990", "line2": "2 33776  86.4039  79.4876 0014715 180.2609 297.1088 14.38240494881262"}}, "geometry": {"type": "Point", "coordinates": [-98.90054692709131, -26.469143301893947]}}, {"type": "Feature", "properties": {"norad_id": 33777, "name": "IRIDIUM 33 DEB", "group": "iridium-33-debris", "lat": -33.02206627475665, "lon": -143.9609150869233, "alt_km": 709.981986217841, "timestamp": "2025-12-16T05:49:09.598280+00:00", "meta": {"OBJECT_NAME": "IRIDIUM 33 DEB", "OBJECT_ID": "1997-051Q", "EPOCH": "2025-12-15T13:59:42.150336", "MEAN_MOTION": 14.55637018, "ECCENTRICITY": 0.00053352, "INCLINATION": 86.3788, "RA_OF_ASC_NODE": 33.9668, "ARG_OF_PERICENTER": 235.7351, "MEAN_ANOMALY": 124.3352, "EPHEMERIS_TYPE": 0, "CLASSIFICATION_TYPE": "U", "NORAD_CAT_ID": 33777, "ELEMENT_SET_NO": 999, "REV_AT_EPOCH": 88575, "BSTAR": 0.00059945783, "MEAN_MOTION_DOT": 2.637e-05, "MEAN_MOTION_DDOT": 0}, "tle": {"line1": "1 33777U 97051Q   25349.58312674  .00002637  00000+0  59946-3 0  9991", "line2": "2 33777  86.3788  33.9668 0005335 235.7351 124.3352 14.55637018885759"}}, "geometry": {"type": "Point", "coordinates": [-143.9609150869233, -33.02206627475665]}}, {"type": "Feature", "properties": {"norad_id": 33850, "name": "IRIDIUM 33 DEB", "group": "iridium-33-debris", "lat": 6.590828877658862, "lon": 29.09720705992238, "alt_km": 760.7420663853281, "timestamp": "2025-12-16T05:49:09.598292+00:00", "meta": {"OBJECT_NAME": "IRIDIUM 33 DEB", "OBJECT_ID": "1997-051T", "EPOCH": "2025-12-15T20:35:54.826944", "MEAN_MOTION": 14.42152489, "ECCENTRICITY": 0.00125282, "INCLINATION": 86.3416, "RA_OF_ASC_NODE": 28.8388, "ARG_OF_PERICENTER": 151.5907, "MEAN_ANOMALY": 21.8219, "EPHEMERIS_TYPE": 0, "CLASSIFICATION_TYPE": "U", "NORAD_CAT_ID": 33850, "ELEMENT_SET_NO": 999, "REV_AT_EPOCH": 88197, "BSTAR": 0.00028672748, "MEAN_MOTION_DOT": 9.64e-06, "MEAN_MOTION_DDOT": 0}, "tle": {"line1": "1 33850U 97051T   25349.85827346  .00000964  00000+0  28673-3 0  9994", "line2": "2 33850  86.3416  28.8388 0012528 151.5907  21.8219 14.42152489881978"}}, "geometry": {"type": "Point", "coordinates": [29.09720705992238, 6.590828877658862]}}, {"type": "Feature", "properties": {"norad_id": 33853, "name": "IRIDIUM 33 DEB", "group": "iridium-33-debris", "lat": -26.80027146505984, "lon": 170.30136552845613, "alt_km": 759.3632709355288, "timestamp": "2025-12-16T05:49:09.598305+00:00", "meta": {"OBJECT_NAME": "IRIDIUM 33 DEB", "OBJECT_ID": "1997-051W", "EPOCH": "2025-12-15T12:14:47.907744", "MEAN_MOTION": 13.99079468, "ECCENTRICITY": 0.02070108, "INCLINATION": 85.9998, "RA_OF_ASC_NODE": 348.5966, "ARG_OF_PERICENTER": 227.2361, "MEAN_ANOMALY": 254.6583, "EPHEMERIS_TYPE": 0, "CLASSIFICATION_TYPE": "U", "NORAD_CAT_ID": 33853, "ELEMENT_SET_NO": 999, "REV_AT_EPOCH": 85384, "BSTAR": 0.0014178207, "MEAN_MOTION_DOT": 2.481e-05, "MEAN_MOTION_DDOT": 0}, "tle": {"line1": "1 33853U 97051W   25349.51027671  .00002481  00000+0  14178-2 0  9993", "line2": "2 33853  85.9998 348.5966 0207010 227.2361 254.6583 13.99079468853843"}}, "geometry": {"type": "Point", "coordinates": [170.30136552845613, -26.80027146505984]}}, {"type": "Feature", "properties": {"norad_id": 33860, "name": "IRIDIUM 33 DEB", "group": "iridium-33-debris", "lat": -77.92321776281169, "lon": -137.11906781555874, "alt_km": 676.5072684915494, "timestamp": "2025-12-16T05:49:09.598316+00:00", "meta": {"OBJECT_NAME": "IRIDIUM 33 DEB", "OBJECT_ID": "1997-051AD", "EPOCH": "2025-12-15T21:15:56.848032", "MEAN_MOTION": 14.67410021, "ECCENTRICITY": 0.00070173, "INCLINATION": 86.3836, "RA_OF_ASC_NODE": 25.8456, "ARG_OF_PERICENTER": 346.6371, "MEAN_ANOMALY": 190.3785, "EPHEMERIS_TYPE": 0, "CLASSIFICATION_TYPE": "U", "NORAD_CAT_ID": 33860, "ELEMENT_SET_NO": 999, "REV_AT_EPOCH": 88768, "BSTAR": 0.00078372446, "MEAN_MOTION_DOT": 4.454e-05, "MEAN_MOTION_DDOT": 0}, "tle": {"line1": "1 33860U 97051AD  25349.88607463  .00004454  00000+0  78372-3 0  9993", "line2": "2 33860  86.3836  25.8456 0007017 346.6371 190.3785 14.67410021887687"}}, "geometry": {"type": "Point", "coordinates": [-137.11906781555874, -77.92321776281169]}}, {"type": "Feature", "properties": {"norad_id": 33862, "name": "IRIDIUM 33 DEB", "group": "iridium-33-debris", "lat": -40.15165471477714, "lon": 32.949550525895354, "alt_km": 673.9220618441641, "timestamp": "2025-12-16T05:49:09.598326+00:00", "meta": {"OBJECT_NAME": "IRIDIUM 33 DEB", "OBJECT_ID": "1997-051AF", "EPOCH": "2025-12-15T20:58:50.715840", "MEAN_MOTION": 14.69530594, "ECCENTRICITY": 0.00531658, "INCLINATION": 86.4093, "RA_OF_ASC_NODE": 36.1485, "ARG_OF_PERICENTER": 58.6978, "MEAN_ANOMALY": 114.7438, "EPHEMERIS_TYPE": 0, "CLASSIFICATION_TYPE": "U", "NORAD_CAT_ID": 33862, "ELEMENT_SET_NO": 999, "REV_AT_EPOCH": 88869, "BSTAR": 0.00090079896, "MEAN_MOTION_DOT": 5.485e-05, "MEAN_MOTION_DDOT": 0}, "tle": {"line1": "1 33862U 97051AF  25349.87419810  .00005485  00000+0  90080-3 0  9996", "line2": "2 33862  86.4093  36.1485 0053165  58.6978 114.7438 14.69530594888697"}}, "geometry": {"type": "Point", "coordinates": [32.949550525895354, -40.15165471477714]}}, {"type": "Feature", "properties": {"norad_id": 33866, "name": "IRIDIUM 33 DEB", "group": "iridium-33-debris", "lat": -9.75668250472333, "lon": -87.8088010347452, "alt_km": 747.6510062661173, "timestamp": "2025-12-16T05:49:09.598337+00:00", "meta": {"OBJECT_NAME": "IRIDIUM 33 DEB", "OBJECT_ID": "1997-051AK", "EPOCH": "2025-12-15T19:24:47.416032", "MEAN_MOTION": 14.25285858, "ECCENTRICITY": 0.01147275, "INCLINATION": 86.2999, "RA_OF_ASC_NODE": 91.7371, "ARG_OF_PERICENTER": 151.6501, "MEAN_ANOMALY": 333.8075, "EPHEMERIS_TYPE": 0, "CLASSIFICATION_TYPE": "U", "NORAD_CAT_ID": 33866, "ELEMENT_SET_NO": 999, "REV_AT_EPOCH": 86854, "BSTAR": 0.00049831451, "MEAN_MOTION_DOT": 1.276e-05, "MEAN_MOTION_DDOT": 0}, "tle": {"line1": "1 33866U 97051AK  25349.80888213  .00001276  00000+0  49831-3 0  9992", "line2": "2 33866  86.2999  91.7371 0114727 151.6501 333.8075 14.25285858868548"}}, "geometry": {"type": "Point", "coordinates": [-87.8088010347452, -9.75668250472333]}}]}